[{"OBJECT_NAME":"LUNA-1","OBJECT_ID":"2025-276DR","EPOCH":"2026-03-09T16:52:45.597792","MEAN_MOTION":15.20784486,"ECCENTRICITY":0.00020745,"INCLINATION":97.4326,"RA_OF_ASC_NODE":144.29,"ARG_OF_PERICENTER":174.5439,"MEAN_ANOMALY":185.582,"EPHEMERIS_TYPE":0,"CLASSIFICATION_TYPE":"U","NORAD_CAT_ID":66777,"ELEMENT_SET_NO":999,"REV_AT_EPOCH":1533,"BSTAR":0.00042338714,"MEAN_MOTION_DOT":9.266e-5,"MEAN_MOTION_DDOT":0},{"OBJECT_NAME":"OBJECT AS","OBJECT_ID":"2025-313AS","EPOCH":"2026-03-09T21:37:48.750816","MEAN_MOTION":15.22046455,"ECCENTRICITY":0.00110673,"INCLINATION":97.3991,"RA_OF_ASC_NODE":145.2294,"ARG_OF_PERICENTER":345.8413,"MEAN_ANOMALY":14.2511,"EPHEMERIS_TYPE":0,"CLASSIFICATION_TYPE":"U","NORAD_CAT_ID":67288,"ELEMENT_SET_NO":999,"REV_AT_EPOCH":1085,"BSTAR":0.00031771512,"MEAN_MOTION_DOT":7.207e-5,"MEAN_MOTION_DDOT":0}]
